[{"OBJECT_NAME":"STARLINK-5895","OBJECT_ID":"2023-037BC","EPOCH":"2026-03-09T22:23:45.381696","MEAN_MOTION":15.07243555,"ECCENTRICITY":0.00049855,"INCLINATION":69.9972,"RA_OF_ASC_NODE":260.028,"ARG_OF_PERICENTER":264.4993,"MEAN_ANOMALY":95.5602,"EPHEMERIS_TYPE":0,"CLASSIFICATION_TYPE":"U","NORAD_CAT_ID":55964,"ELEMENT_SET_NO":999,"REV_AT_EPOCH":16460,"BSTAR":0.00072849946,"MEAN_MOTION_DOT":0.00010921,"MEAN_MOTION_DDOT":0},{"OBJECT_NAME":"STARLINK-34969","OBJECT_ID":"2025-179G","EPOCH":"2026-03-09T15:46:24.233088","MEAN_MOTION":15.05662612,"ECCENTRICITY":0.00019639,"INCLINATION":97.6036,"RA_OF_ASC_NODE":112.935,"ARG_OF_PERICENTER":125.6061,"MEAN_ANOMALY":234.5349,"EPHEMERIS_TYPE":0,"CLASSIFICATION_TYPE":"U","NORAD_CAT_ID":65241,"ELEMENT_SET_NO":999,"REV_AT_EPOCH":3181,"BSTAR":-1.2887071e-5,"MEAN_MOTION_DOT":-2.47e-6,"MEAN_MOTION_DDOT":0}]
